{"type": "FeatureCollection", "features": [ {"type": "Feature", "properties": {"norad_id": 37216, "name": "COSMO-SKYMED 4", "group": "resource", "lat": -7.226767060429015, "lon": -19.188906796669922, "alt_km": 626.7022349891486, "timestamp": "2025-12-06T09:34:16.574712+00:00", "meta": {"OBJECT_NAME": "COSMO-SKYMED 4", "OBJECT_ID": "2010-060A", "EPOCH": "2025-12-05T23:00:28.903968", "MEAN_MOTION": 14.82155476, "ECCENTRICITY": 0.00013716, "INCLINATION": 97.8815, "RA_OF_ASC_NODE": 161.3842, "ARG_OF_PERICENTER": 82.8726, "MEAN_ANOMALY": 277.2643, "EPHEMERIS_TYPE": 0, "CLASSIFICATION_TYPE": "U", "NORAD_CAT_ID": 37216, "ELEMENT_SET_NO": 999, "REV_AT_EPOCH": 81594, "BSTAR": 0.00014049378, "MEAN_MOTION_DOT": 1.066e-05, "MEAN_MOTION_DDOT": 0}, "tle": {"line1": "1 37216U 10060A   25339.95866787  .00001066  00000+0  14049-3 0  9997", "line2": "2 37216  97.8815 161.3842 0001371  82.8726 277.2643 14.82155476815940"}}, "geometry": {"type": "Point", "coordinates": [-19.188906796669922, -7.226767060429015]}}, {"type": "Feature", "properties": {"norad_id": 37387, "name": "RESOURCESAT-2", "group": "resource", "lat": 80.89773684382442, "lon": -61.093163998367224, "alt_km": 808.4976550225974, "timestamp": "2025-12-06T09:34:16.574723+00:00", "meta": {"OBJECT_NAME": "RESOURCESAT-2", "OBJECT_ID": "2011-015A", "EPOCH": "2025-12-05T23:00:13.703616", "MEAN_MOTION": 14.21593067, "ECCENTRICITY": 0.00066986, "INCLINATION": 98.7886, "RA_OF_ASC_NODE": 43.5406, "ARG_OF_PERICENTER": 60.0807, "MEAN_ANOMALY": 300.1035, "EPHEMERIS_TYPE": 0, "CLASSIFICATION_TYPE": "U", "NORAD_CAT_ID": 37387, "ELEMENT_SET_NO": 999, "REV_AT_EPOCH": 75872, "BSTAR": 0.00016819785, "MEAN_MOTION_DOT": 3.24e-06, "MEAN_MOTION_DDOT": 0}, "tle": {"line1": "1 37387U 11015A   25339.95849194  .00000324  00000+0  16820-3 0  9995", "line2": "2 37387  98.7886  43.5406 0006698  60.0807 300.1035 14.21593067758727"}}, "geometry": {"type": "Point", "coordinates": [-61.093163998367224, 80.89773684382442]}}, {"type": "Feature", "properties": {"norad_id": 37781, "name": "HAIYANG-2A", "group": "resource", "lat": 34.11321501319315, "lon": -24.968042002534574, "alt_km": 965.0856068550711, "timestamp": "2025-12-06T09:34:16.574733+00:00", "meta": {"OBJECT_NAME": "HAIYANG-2A", "OBJECT_ID": "2011-043A", "EPOCH": "2025-12-05T22:57:16.907616", "MEAN_MOTION": 13.78834591, "ECCENTRICITY": 0.00016477, "INCLINATION": 99.3377, "RA_OF_ASC_NODE": 340.9955, "ARG_OF_PERICENTER": 94.0747, "MEAN_ANOMALY": 266.0593, "EPHEMERIS_TYPE": 0, "CLASSIFICATION_TYPE": "U", "NORAD_CAT_ID": 37781, "ELEMENT_SET_NO": 999, "REV_AT_EPOCH": 72005, "BSTAR": 6.7965945e-05, "MEAN_MOTION_DOT": 2.5e-07, "MEAN_MOTION_DDOT": 0}, "tle": {"line1": "1 37781U 11043A   25339.95644569  .00000025  00000+0  67966-4 0  9999", "line2": "2 37781  99.3377 340.9955 0001647  94.0747 266.0593 13.78834591720054"}}, "geometry": {"type": "Point", "coordinates": [-24.968042002534574, 34.11321501319315]}}, {"type": "Feature", "properties": {"norad_id": 37791, "name": "RASAT", "group": "resource", "lat": -75.99275276019462, "lon": 104.39229029026258, "alt_km": 689.867715022363, "timestamp": "2025-12-06T09:34:16.574743+00:00", "meta": {"OBJECT_NAME": "RASAT", "OBJECT_ID": "2011-044D", "EPOCH": "2025-12-05T22:52:33.896640", "MEAN_MOTION": 14.67894622, "ECCENTRICITY": 0.00219435, "INCLINATION": 98.0657, "RA_OF_ASC_NODE": 69.3117, "ARG_OF_PERICENTER": 85.4734, "MEAN_ANOMALY": 2.6149, "EPHEMERIS_TYPE": 0, "CLASSIFICATION_TYPE": "U", "NORAD_CAT_ID": 37791, "ELEMENT_SET_NO": 999, "REV_AT_EPOCH": 76483, "BSTAR": 0.00022263282, "MEAN_MOTION_DOT": 1.228e-05, "MEAN_MOTION_DDOT": 0}, "tle": {"line1": "1 37791U 11044D   25339.95317010  .00001228  00000+0  22263-3 0  9995", "line2": "2 37791  98.0657  69.3117 0021943  85.4734   2.6149 14.67894622764830"}}, "geometry": {"type": "Point", "coordinates": [104.39229029026258, -75.99275276019462]}}, {"type": "Feature", "properties": {"norad_id": 37841, "name": "SRMSAT", "group": "resource", "lat": -1.2200108191809613, "lon": -30.30583183008889, "alt_km": 847.7346863768526, "timestamp": "2025-12-06T09:34:16.574754+00:00", "meta": {"OBJECT_NAME": "SRMSAT", "OBJECT_ID": "2011-058D", "EPOCH": "2025-12-05T19:15:39.477600", "MEAN_MOTION": 14.11507797, "ECCENTRICITY": 0.00117219, "INCLINATION": 19.9698, "RA_OF_ASC_NODE": 149.9381, "ARG_OF_PERICENTER": 236.4412, "MEAN_ANOMALY": 150.7889, "EPHEMERIS_TYPE": 0, "CLASSIFICATION_TYPE": "U", "NORAD_CAT_ID": 37841, "ELEMENT_SET_NO": 999, "REV_AT_EPOCH": 73046, "BSTAR": 0.00015124686, "MEAN_MOTION_DOT": 5.44e-06, "MEAN_MOTION_DDOT": 0}, "tle": {"line1": "1 37841U 11058D   25339.80254025  .00000544  00000+0  15125-3 0  9995", "line2": "2 37841  19.9698 149.9381 0011721 236.4412 150.7889 14.11507797730466"}}, "geometry": {"type": "Point", "coordinates": [-30.30583183008889, -1.2200108191809613]}}, {"type": "Feature", "properties": {"norad_id": 38012, "name": "PLEIADES 1A", "group": "resource", "lat": -68.76816610763332, "lon": 75.00442452669537, "alt_km": 705.9446233587823, "timestamp": "2025-12-06T09:34:16.574764+00:00", "meta": {"OBJECT_NAME": "PLEIADES 1A", "OBJECT_ID": "2011-076F", "EPOCH": "2025-12-05T22:52:24.157632", "MEAN_MOTION": 14.58551273, "ECCENTRICITY": 0.00013721, "INCLINATION": 98.1833, "RA_OF_ASC_NODE": 52.8262, "ARG_OF_PERICENTER": 79.9, "MEAN_ANOMALY": 30.682, "EPHEMERIS_TYPE": 0, "CLASSIFICATION_TYPE": "U", "NORAD_CAT_ID": 38012, "ELEMENT_SET_NO": 999, "REV_AT_EPOCH": 74382, "BSTAR": 0.0001888797, "MEAN_MOTION_DOT": 8.32e-06, "MEAN_MOTION_DDOT": 0}, "tle": {"line1": "1 38012U 11076F   25339.95305738  .00000832  00000+0  18888-3 0  9999", "line2": "2 38012  98.1833  52.8262 0001372  79.9000  30.6820 14.58551273743825"}}, "geometry": {"type": "Point", "coordinates": [75.00442452669537, -68.76816610763332]}}, {"type": "Feature", "properties": {"norad_id": 38038, "name": "ZIYUAN 1-02C (ZY 1-02C)", "group": "resource", "lat": -53.35320983187541, "lon": 58.033963426625085, "alt_km": 776.3527775663388, "timestamp": "2025-12-06T09:34:16.574775+00:00", "meta": {"OBJECT_NAME": "ZIYUAN 1-02C (ZY 1-02C)", "OBJECT_ID": "2011-079A", "EPOCH": "2025-12-05T22:56:21.830208", "MEAN_MOTION": 14.3800031, "ECCENTRICITY": 0.00069077, "INCLINATION": 98.4344, "RA_OF_ASC_NODE": 46.0944, "ARG_OF_PERICENTER": 157.2338, "MEAN_ANOMALY": 16.6251, "EPHEMERIS_TYPE": 0, "CLASSIFICATION_TYPE": "U", "NORAD_CAT_ID": 38038, "ELEMENT_SET_NO": 999, "REV_AT_EPOCH": 73143, "BSTAR": 0.00032482739, "MEAN_MOTION_DOT": 9.39e-06, "MEAN_MOTION_DDOT": 0}, "tle": {"line1": "1 38038U 11079A   25339.95580822  .00000939  00000+0  32483-3 0  9994", "line2": "2 38038  98.4344  46.0944 0006907 157.2338  16.6251 14.38000310731433"}}, "geometry": {"type": "Point", "coordinates": [58.033963426625085, -53.35320983187541]}}, {"type": "Feature", "properties": {"norad_id": 38046, "name": "ZIYUAN 3-1 (ZY 3-1)", "group": "resource", "lat": 19.492796234467406, "lon": 44.117188922396544, "alt_km": 365.33838631977324, "timestamp": "2025-12-06T09:34:16.574785+00:00", "meta": {"OBJECT_NAME": "ZIYUAN 3-1 (ZY 3-1)", "OBJECT_ID": "2012-001A", "EPOCH": "2025-12-05T22:45:42.045120", "MEAN_MOTION": 15.67293771, "ECCENTRICITY": 0.00020489, "INCLINATION": 97.1767, "RA_OF_ASC_NODE": 46.2134, "ARG_OF_PERICENTER": 20.1389, "MEAN_ANOMALY": 339.9953, "EPHEMERIS_TYPE": 0, "CLASSIFICATION_TYPE": "U", "NORAD_CAT_ID": 38046, "ELEMENT_SET_NO": 999, "REV_AT_EPOCH": 77390, "BSTAR": 0.00079748444, "MEAN_MOTION_DOT": 0.00086313, "MEAN_MOTION_DDOT": 0}, "tle": {"line1": "1 38046U 12001A   25339.94840330  .00086313  00000+0  79748-3 0  9996", "line2": "2 38046  97.1767  46.2134 0002048  20.1389 339.9953 15.67293771773902"}}, "geometry": {"type": "Point", "coordinates": [44.117188922396544, 19.492796234467406]}}, {"type": "Feature", "properties": {"norad_id": 38338, "name": "ARIRANG-3 (KOMPSAT-3)", "group": "resource", "lat": 63.39569811797962, "lon": 131.95307859933848, "alt_km": 683.3171612737679, "timestamp": "2025-12-06T09:34:16.574795+00:00", "meta": {"OBJECT_NAME": "ARIRANG-3 (KOMPSAT-3)", "OBJECT_ID": "2012-025B", "EPOCH": "2025-12-05T23:11:18.549024", "MEAN_MOTION": 14.61698412, "ECCENTRICITY": 0.0005841, "INCLINATION": 98.3313, "RA_OF_ASC_NODE": 294.505, "ARG_OF_PERICENTER": 0.4885, "MEAN_ANOMALY": 359.632, "EPHEMERIS_TYPE": 0, "CLASSIFICATION_TYPE": "U", "NORAD_CAT_ID": 38338, "ELEMENT_SET_NO": 999, "REV_AT_EPOCH": 72311, "BSTAR": 0.00023846306, "MEAN_MOTION_DOT": 1.139e-05, "MEAN_MOTION_DDOT": 0}, "tle": {"line1": "1 38338U 12025B   25339.96618691  .00001139  00000+0  23846-3 0  9992", "line2": "2 38338  98.3313 294.5050 0005841   0.4885 359.6320 14.61698412723116"}}, "geometry": {"type": "Point", "coordinates": [131.95307859933848, 63.39569811797962]}}, {"type": "Feature", "properties": {"norad_id": 38709, "name": "EXACTVIEW-1 (ADS-1B)", "group": "resource", "lat": -50.74203091750912, "lon": -102.47938020972076, "alt_km": 821.8265936487705, "timestamp": "2025-12-06T09:34:16.574806+00:00", "meta": {"OBJECT_NAME": "EXACTVIEW-1 (ADS-1B)", "OBJECT_ID": "2012-039C", "EPOCH": "2025-12-05T22:22:33.790656", "MEAN_MOTION": 14.24903465, "ECCENTRICITY": 0.00110299, "INCLINATION": 98.9636, "RA_OF_ASC_NODE": 88.1797, "ARG_OF_PERICENTER": 13.6407, "MEAN_ANOMALY": 346.5067, "EPHEMERIS_TYPE": 0, "CLASSIFICATION_TYPE": "U", "NORAD_CAT_ID": 38709, "ELEMENT_SET_NO": 999, "REV_AT_EPOCH": 69518, "BSTAR": 0.00015078973, "MEAN_MOTION_DOT": 3.06e-06, "MEAN_MOTION_DDOT": 0}, "tle": {"line1": "1 38709U 12039C   25339.93233554  .00000306  00000+0  15079-3 0  9991", "line2": "2 38709  98.9636  88.1797 0011029  13.6407 346.5067 14.24903465695182"}}, "geometry": {"type": "Point", "coordinates": [-102.47938020972076, -50.74203091750912]}}]}